STARLINK-4673           
1 53589U 22104B   26068.88535258 -.00000083  00000+0  12861-4 0  9998
2 53589  53.2167 243.2925 0001475  86.9655 273.1506 15.08840184195973
DISKSAT D               
1 67221U 25305C   26068.55257179  .00011599  00000+0  76841-3 0  9999
2 67221  45.0023 251.6339 0003712 319.2749  40.7848 15.07416577 12277
