[{"OBJECT_NAME":"STARLINK-4673","OBJECT_ID":"2022-104B","EPOCH":"2026-03-09T21:14:54.463776","MEAN_MOTION":15.08840184,"ECCENTRICITY":0.00014749,"INCLINATION":53.2167,"RA_OF_ASC_NODE":243.2925,"ARG_OF_PERICENTER":86.9655,"MEAN_ANOMALY":273.1506,"EPHEMERIS_TYPE":0,"CLASSIFICATION_TYPE":"U","NORAD_CAT_ID":53589,"ELEMENT_SET_NO":999,"REV_AT_EPOCH":19597,"BSTAR":1.2861372e-5,"MEAN_MOTION_DOT":-8.3e-7,"MEAN_MOTION_DDOT":0},{"OBJECT_NAME":"DISKSAT D","OBJECT_ID":"2025-305C","EPOCH":"2026-03-09T13:15:42.202656","MEAN_MOTION":15.07416577,"ECCENTRICITY":0.00037124,"INCLINATION":45.0023,"RA_OF_ASC_NODE":251.6339,"ARG_OF_PERICENTER":319.2749,"MEAN_ANOMALY":40.7848,"EPHEMERIS_TYPE":0,"CLASSIFICATION_TYPE":"U","NORAD_CAT_ID":67221,"ELEMENT_SET_NO":999,"REV_AT_EPOCH":1227,"BSTAR":0.00076840651,"MEAN_MOTION_DOT":0.00011599,"MEAN_MOTION_DDOT":0}]
